<?xml version="1.0" encoding="UTF-8"?>
<kml xmlns="http://www.opengis.net/kml/2.2" xmlns:gx="http://www.google.com/kml/ext/2.2">
    <Document id="1">
        <Style id="4">
            <LineStyle id="5">
                <color>ff1bb300</color>
                <colorMode>normal</colorMode>
                <width>20</width>
            </LineStyle>
        </Style>
        <Style id="8">
            <LineStyle id="9">
                <color>ff1bb300</color>
                <colorMode>normal</colorMode>
                <width>20</width>
            </LineStyle>
        </Style>
        <Style id="12">
            <LineStyle id="13">
                <color>ff1bb300</color>
                <colorMode>normal</colorMode>
                <width>20</width>
            </LineStyle>
        </Style>
        <Style id="16">
            <LineStyle id="17">
                <color>ff1ab300</color>
                <colorMode>normal</colorMode>
                <width>20</width>
            </LineStyle>
        </Style>
        <Style id="20">
            <LineStyle id="21">
                <color>ff1ab300</color>
                <colorMode>normal</colorMode>
                <width>20</width>
            </LineStyle>
        </Style>
        <Style id="24">
            <LineStyle id="25">
                <color>ff00b30b</color>
                <colorMode>normal</colorMode>
                <width>20</width>
            </LineStyle>
        </Style>
        <Style id="28">
            <LineStyle id="29">
                <color>ff00b31c</color>
                <colorMode>normal</colorMode>
                <width>20</width>
            </LineStyle>
        </Style>
        <Style id="32">
            <LineStyle id="33">
                <color>ff00b379</color>
                <colorMode>normal</colorMode>
                <width>20</width>
            </LineStyle>
        </Style>
        <Style id="36">
            <LineStyle id="37">
                <color>ff00b365</color>
                <colorMode>normal</colorMode>
                <width>20</width>
            </LineStyle>
        </Style>
        <Style id="40">
            <LineStyle id="41">
                <color>ff00b3ad</color>
                <colorMode>normal</colorMode>
                <width>20</width>
            </LineStyle>
        </Style>
        <Style id="44">
            <LineStyle id="45">
                <color>ff00b393</color>
                <colorMode>normal</colorMode>
                <width>20</width>
            </LineStyle>
        </Style>
        <Style id="48">
            <LineStyle id="49">
                <color>ff00b382</color>
                <colorMode>normal</colorMode>
                <width>20</width>
            </LineStyle>
        </Style>
        <Style id="52">
            <LineStyle id="53">
                <color>ff0011b3</color>
                <colorMode>normal</colorMode>
                <width>20</width>
            </LineStyle>
        </Style>
        <Style id="56">
            <LineStyle id="57">
                <color>ff0006b3</color>
                <colorMode>normal</colorMode>
                <width>20</width>
            </LineStyle>
        </Style>
        <Style id="60">
            <LineStyle id="61">
                <color>ff0008b3</color>
                <colorMode>normal</colorMode>
                <width>20</width>
            </LineStyle>
        </Style>
        <Style id="64">
            <LineStyle id="65">
                <color>ff000cb3</color>
                <colorMode>normal</colorMode>
                <width>20</width>
            </LineStyle>
        </Style>
        <Style id="68">
            <LineStyle id="69">
                <color>ff0068b3</color>
                <colorMode>normal</colorMode>
                <width>20</width>
            </LineStyle>
        </Style>
        <Style id="72">
            <LineStyle id="73">
                <color>ff000eb3</color>
                <colorMode>normal</colorMode>
                <width>20</width>
            </LineStyle>
        </Style>
        <Style id="76">
            <LineStyle id="77">
                <color>ff0002b3</color>
                <colorMode>normal</colorMode>
                <width>20</width>
            </LineStyle>
        </Style>
        <Style id="80">
            <LineStyle id="81">
                <color>ff0002b3</color>
                <colorMode>normal</colorMode>
                <width>20</width>
            </LineStyle>
        </Style>
        <Style id="84">
            <LineStyle id="85">
                <color>ff0002b3</color>
                <colorMode>normal</colorMode>
                <width>20</width>
            </LineStyle>
        </Style>
        <Style id="88">
            <LineStyle id="89">
                <color>ff0002b3</color>
                <colorMode>normal</colorMode>
                <width>20</width>
            </LineStyle>
        </Style>
        <Style id="92">
            <LineStyle id="93">
                <color>ff0002b3</color>
                <colorMode>normal</colorMode>
                <width>20</width>
            </LineStyle>
        </Style>
        <Style id="96">
            <LineStyle id="97">
                <color>ff0002b3</color>
                <colorMode>normal</colorMode>
                <width>20</width>
            </LineStyle>
        </Style>
        <Style id="100">
            <LineStyle id="101">
                <color>ff0002b3</color>
                <colorMode>normal</colorMode>
                <width>20</width>
            </LineStyle>
        </Style>
        <Style id="104">
            <LineStyle id="105">
                <color>ff0002b3</color>
                <colorMode>normal</colorMode>
                <width>20</width>
            </LineStyle>
        </Style>
        <Style id="108">
            <LineStyle id="109">
                <color>ff0002b3</color>
                <colorMode>normal</colorMode>
                <width>20</width>
            </LineStyle>
        </Style>
        <Style id="112">
            <LineStyle id="113">
                <color>ff0002b3</color>
                <colorMode>normal</colorMode>
                <width>20</width>
            </LineStyle>
        </Style>
        <Style id="116">
            <LineStyle id="117">
                <color>ff0002b3</color>
                <colorMode>normal</colorMode>
                <width>20</width>
            </LineStyle>
        </Style>
        <Style id="120">
            <LineStyle id="121">
                <color>ff0002b3</color>
                <colorMode>normal</colorMode>
                <width>20</width>
            </LineStyle>
        </Style>
        <Style id="124">
            <LineStyle id="125">
                <color>ff0002b3</color>
                <colorMode>normal</colorMode>
                <width>20</width>
            </LineStyle>
        </Style>
        <Style id="128">
            <LineStyle id="129">
                <color>ff0002b3</color>
                <colorMode>normal</colorMode>
                <width>20</width>
            </LineStyle>
        </Style>
        <Style id="132">
            <LineStyle id="133">
                <color>ff0002b3</color>
                <colorMode>normal</colorMode>
                <width>20</width>
            </LineStyle>
        </Style>
        <Style id="136">
            <LineStyle id="137">
                <color>ff0002b3</color>
                <colorMode>normal</colorMode>
                <width>20</width>
            </LineStyle>
        </Style>
        <Style id="140">
            <LineStyle id="141">
                <color>ff0002b3</color>
                <colorMode>normal</colorMode>
                <width>20</width>
            </LineStyle>
        </Style>
        <Style id="144">
            <LineStyle id="145">
                <color>ff0002b3</color>
                <colorMode>normal</colorMode>
                <width>20</width>
            </LineStyle>
        </Style>
        <Style id="148">
            <LineStyle id="149">
                <color>ff0002b3</color>
                <colorMode>normal</colorMode>
                <width>20</width>
            </LineStyle>
        </Style>
        <Style id="152">
            <LineStyle id="153">
                <color>ff0002b3</color>
                <colorMode>normal</colorMode>
                <width>20</width>
            </LineStyle>
        </Style>
        <Style id="156">
            <LineStyle id="157">
                <color>ff0002b3</color>
                <colorMode>normal</colorMode>
                <width>20</width>
            </LineStyle>
        </Style>
        <Style id="160">
            <LineStyle id="161">
                <color>ff0002b3</color>
                <colorMode>normal</colorMode>
                <width>20</width>
            </LineStyle>
        </Style>
        <Style id="164">
            <LineStyle id="165">
                <color>ff0002b3</color>
                <colorMode>normal</colorMode>
                <width>20</width>
            </LineStyle>
        </Style>
        <Style id="168">
            <LineStyle id="169">
                <color>ff0002b3</color>
                <colorMode>normal</colorMode>
                <width>20</width>
            </LineStyle>
        </Style>
        <Style id="172">
            <LineStyle id="173">
                <color>ff0002b3</color>
                <colorMode>normal</colorMode>
                <width>20</width>
            </LineStyle>
        </Style>
        <Style id="176">
            <LineStyle id="177">
                <color>ff0002b3</color>
                <colorMode>normal</colorMode>
                <width>20</width>
            </LineStyle>
        </Style>
        <Style id="180">
            <LineStyle id="181">
                <color>ff0002b3</color>
                <colorMode>normal</colorMode>
                <width>20</width>
            </LineStyle>
        </Style>
        <Style id="184">
            <LineStyle id="185">
                <color>ff0002b3</color>
                <colorMode>normal</colorMode>
                <width>20</width>
            </LineStyle>
        </Style>
        <Style id="188">
            <LineStyle id="189">
                <color>ff0002b3</color>
                <colorMode>normal</colorMode>
                <width>20</width>
            </LineStyle>
        </Style>
        <Style id="192">
            <LineStyle id="193">
                <color>ff0054b3</color>
                <colorMode>normal</colorMode>
                <width>20</width>
            </LineStyle>
        </Style>
        <Style id="196">
            <LineStyle id="197">
                <color>ff0ab300</color>
                <colorMode>normal</colorMode>
                <width>20</width>
            </LineStyle>
        </Style>
        <Style id="200">
            <LineStyle id="201">
                <color>ff1ab300</color>
                <colorMode>normal</colorMode>
                <width>20</width>
            </LineStyle>
        </Style>
        <Style id="204">
            <LineStyle id="205">
                <color>ff1bb300</color>
                <colorMode>normal</colorMode>
                <width>20</width>
            </LineStyle>
        </Style>
        <Placemark id="3">
            <styleUrl>#4</styleUrl>
            <LineString id="2">
                <coordinates>13.06666023,52.3983852,0.0 13.06680031,52.39844177,0.0</coordinates>
            </LineString>
        </Placemark>
        <Placemark id="7">
            <styleUrl>#8</styleUrl>
            <LineString id="6">
                <coordinates>13.06680031,52.39844177,0.0 13.066776,52.39846755,0.0</coordinates>
            </LineString>
        </Placemark>
        <Placemark id="11">
            <styleUrl>#12</styleUrl>
            <LineString id="10">
                <coordinates>13.066776,52.39846755,0.0 13.06677198,52.39846348,0.0</coordinates>
            </LineString>
        </Placemark>
        <Placemark id="15">
            <styleUrl>#16</styleUrl>
            <LineString id="14">
                <coordinates>13.06677198,52.39846348,0.0 13.0668076,52.39847413,0.0</coordinates>
            </LineString>
        </Placemark>
        <Placemark id="19">
            <styleUrl>#20</styleUrl>
            <LineString id="18">
                <coordinates>13.0668076,52.39847413,0.0 13.06683484,52.39847488,0.0</coordinates>
            </LineString>
        </Placemark>
        <Placemark id="23">
            <styleUrl>#24</styleUrl>
            <LineString id="22">
                <coordinates>13.06683484,52.39847488,0.0 13.06687466,52.39847233,0.0</coordinates>
            </LineString>
        </Placemark>
        <Placemark id="27">
            <styleUrl>#28</styleUrl>
            <LineString id="26">
                <coordinates>13.06687466,52.39847233,0.0 13.06693189,52.39842314,0.0</coordinates>
            </LineString>
        </Placemark>
        <Placemark id="31">
            <styleUrl>#32</styleUrl>
            <LineString id="30">
                <coordinates>13.06693189,52.39842314,0.0 13.0669309,52.39849186,0.0</coordinates>
            </LineString>
        </Placemark>
        <Placemark id="35">
            <styleUrl>#36</styleUrl>
            <LineString id="34">
                <coordinates>13.0669309,52.39849186,0.0 13.06696158,52.39849571,0.0</coordinates>
            </LineString>
        </Placemark>
        <Placemark id="39">
            <styleUrl>#40</styleUrl>
            <LineString id="38">
                <coordinates>13.06696158,52.39849571,0.0 13.06699854,52.39849965,0.0</coordinates>
            </LineString>
        </Placemark>
        <Placemark id="43">
            <styleUrl>#44</styleUrl>
            <LineString id="42">
                <coordinates>13.06699854,52.39849965,0.0 13.06703492,52.39850099,0.0</coordinates>
            </LineString>
        </Placemark>
        <Placemark id="47">
            <styleUrl>#48</styleUrl>
            <LineString id="46">
                <coordinates>13.06703492,52.39850099,0.0 13.06707365,52.39850271,0.0</coordinates>
            </LineString>
        </Placemark>
        <Placemark id="51">
            <styleUrl>#52</styleUrl>
            <LineString id="50">
                <coordinates>13.06707365,52.39850271,0.0 13.067119,52.39850876,0.0</coordinates>
            </LineString>
        </Placemark>
        <Placemark id="55">
            <styleUrl>#56</styleUrl>
            <LineString id="54">
                <coordinates>13.067119,52.39850876,0.0 13.0671599,52.39851447,0.0</coordinates>
            </LineString>
        </Placemark>
        <Placemark id="59">
            <styleUrl>#60</styleUrl>
            <LineString id="58">
                <coordinates>13.0671599,52.39851447,0.0 13.06720328,52.39851551,0.0</coordinates>
            </LineString>
        </Placemark>
        <Placemark id="63">
            <styleUrl>#64</styleUrl>
            <LineString id="62">
                <coordinates>13.06720328,52.39851551,0.0 13.06725007,52.39851739,0.0</coordinates>
            </LineString>
        </Placemark>
        <Placemark id="67">
            <styleUrl>#68</styleUrl>
            <LineString id="66">
                <coordinates>13.06725007,52.39851739,0.0 13.06730296,52.39852084,0.0</coordinates>
            </LineString>
        </Placemark>
        <Placemark id="71">
            <styleUrl>#72</styleUrl>
            <LineString id="70">
                <coordinates>13.06730296,52.39852084,0.0 13.0673653,52.39852825,0.0</coordinates>
            </LineString>
        </Placemark>
        <Placemark id="75">
            <styleUrl>#76</styleUrl>
            <LineString id="74">
                <coordinates>13.0673653,52.39852825,0.0 13.06743931,52.39853899,0.0</coordinates>
            </LineString>
        </Placemark>
        <Placemark id="79">
            <styleUrl>#80</styleUrl>
            <LineString id="78">
                <coordinates>13.06743931,52.39853899,0.0 13.06751273,52.39853217,0.0</coordinates>
            </LineString>
        </Placemark>
        <Placemark id="83">
            <styleUrl>#84</styleUrl>
            <LineString id="82">
                <coordinates>13.06751273,52.39853217,0.0 13.06759386,52.39854753,0.0</coordinates>
            </LineString>
        </Placemark>
        <Placemark id="87">
            <styleUrl>#88</styleUrl>
            <LineString id="86">
                <coordinates>13.06759386,52.39854753,0.0 13.06768199,52.39855622,0.0</coordinates>
            </LineString>
        </Placemark>
        <Placemark id="91">
            <styleUrl>#92</styleUrl>
            <LineString id="90">
                <coordinates>13.06768199,52.39855622,0.0 13.06778086,52.39857748,0.0</coordinates>
            </LineString>
        </Placemark>
        <Placemark id="95">
            <styleUrl>#96</styleUrl>
            <LineString id="94">
                <coordinates>13.06778086,52.39857748,0.0 13.06785902,52.39858883,0.0</coordinates>
            </LineString>
        </Placemark>
        <Placemark id="99">
            <styleUrl>#100</styleUrl>
            <LineString id="98">
                <coordinates>13.06785902,52.39858883,0.0 13.06794262,52.39860755,0.0</coordinates>
            </LineString>
        </Placemark>
        <Placemark id="103">
            <styleUrl>#104</styleUrl>
            <LineString id="102">
                <coordinates>13.06794262,52.39860755,0.0 13.06804139,52.39860217,0.0</coordinates>
            </LineString>
        </Placemark>
        <Placemark id="107">
            <styleUrl>#108</styleUrl>
            <LineString id="106">
                <coordinates>13.06804139,52.39860217,0.0 13.06812872,52.39863165,0.0</coordinates>
            </LineString>
        </Placemark>
        <Placemark id="111">
            <styleUrl>#112</styleUrl>
            <LineString id="110">
                <coordinates>13.06812872,52.39863165,0.0 13.0682182,52.39864187,0.0</coordinates>
            </LineString>
        </Placemark>
        <Placemark id="115">
            <styleUrl>#116</styleUrl>
            <LineString id="114">
                <coordinates>13.0682182,52.39864187,0.0 13.06830375,52.39865698,0.0</coordinates>
            </LineString>
        </Placemark>
        <Placemark id="119">
            <styleUrl>#120</styleUrl>
            <LineString id="118">
                <coordinates>13.06830375,52.39865698,0.0 13.06838937,52.39867122,0.0</coordinates>
            </LineString>
        </Placemark>
        <Placemark id="123">
            <styleUrl>#124</styleUrl>
            <LineString id="122">
                <coordinates>13.06838937,52.39867122,0.0 13.06848267,52.39866863,0.0</coordinates>
            </LineString>
        </Placemark>
        <Placemark id="127">
            <styleUrl>#128</styleUrl>
            <LineString id="126">
                <coordinates>13.06848267,52.39866863,0.0 13.06856774,52.39869591,0.0</coordinates>
            </LineString>
        </Placemark>
        <Placemark id="131">
            <styleUrl>#132</styleUrl>
            <LineString id="130">
                <coordinates>13.06856774,52.39869591,0.0 13.06867465,52.39869822,0.0</coordinates>
            </LineString>
        </Placemark>
        <Placemark id="135">
            <styleUrl>#136</styleUrl>
            <LineString id="134">
                <coordinates>13.06867465,52.39869822,0.0 13.06875404,52.39871075,0.0</coordinates>
            </LineString>
        </Placemark>
        <Placemark id="139">
            <styleUrl>#140</styleUrl>
            <LineString id="138">
                <coordinates>13.06875404,52.39871075,0.0 13.06881272,52.39877776,0.0</coordinates>
            </LineString>
        </Placemark>
        <Placemark id="143">
            <styleUrl>#144</styleUrl>
            <LineString id="142">
                <coordinates>13.06881272,52.39877776,0.0 13.06889842,52.39879369,0.0</coordinates>
            </LineString>
        </Placemark>
        <Placemark id="147">
            <styleUrl>#148</styleUrl>
            <LineString id="146">
                <coordinates>13.06889842,52.39879369,0.0 13.06897895,52.39880781,0.0</coordinates>
            </LineString>
        </Placemark>
        <Placemark id="151">
            <styleUrl>#152</styleUrl>
            <LineString id="150">
                <coordinates>13.06897895,52.39880781,0.0 13.06906684,52.39882447,0.0</coordinates>
            </LineString>
        </Placemark>
        <Placemark id="155">
            <styleUrl>#156</styleUrl>
            <LineString id="154">
                <coordinates>13.06906684,52.39882447,0.0 13.06915414,52.39883805,0.0</coordinates>
            </LineString>
        </Placemark>
        <Placemark id="159">
            <styleUrl>#160</styleUrl>
            <LineString id="158">
                <coordinates>13.06915414,52.39883805,0.0 13.06923233,52.39885107,0.0</coordinates>
            </LineString>
        </Placemark>
        <Placemark id="163">
            <styleUrl>#164</styleUrl>
            <LineString id="162">
                <coordinates>13.06923233,52.39885107,0.0 13.06931688,52.39886046,0.0</coordinates>
            </LineString>
        </Placemark>
        <Placemark id="167">
            <styleUrl>#168</styleUrl>
            <LineString id="166">
                <coordinates>13.06931688,52.39886046,0.0 13.06939996,52.39887028,0.0</coordinates>
            </LineString>
        </Placemark>
        <Placemark id="171">
            <styleUrl>#172</styleUrl>
            <LineString id="170">
                <coordinates>13.06939996,52.39887028,0.0 13.06948904,52.39882722,0.0</coordinates>
            </LineString>
        </Placemark>
        <Placemark id="175">
            <styleUrl>#176</styleUrl>
            <LineString id="174">
                <coordinates>13.06948904,52.39882722,0.0 13.0695623,52.39883755,0.0</coordinates>
            </LineString>
        </Placemark>
        <Placemark id="179">
            <styleUrl>#180</styleUrl>
            <LineString id="178">
                <coordinates>13.0695623,52.39883755,0.0 13.06963135,52.39884373,0.0</coordinates>
            </LineString>
        </Placemark>
        <Placemark id="183">
            <styleUrl>#184</styleUrl>
            <LineString id="182">
                <coordinates>13.06963135,52.39884373,0.0 13.0697004,52.39884991,0.0</coordinates>
            </LineString>
        </Placemark>
        <Placemark id="187">
            <styleUrl>#188</styleUrl>
            <LineString id="186">
                <coordinates>13.0697004,52.39884991,0.0 13.06975847,52.39885535,0.0</coordinates>
            </LineString>
        </Placemark>
        <Placemark id="191">
            <styleUrl>#192</styleUrl>
            <LineString id="190">
                <coordinates>13.06975847,52.39885535,0.0 13.06980276,52.39886252,0.0</coordinates>
            </LineString>
        </Placemark>
        <Placemark id="195">
            <styleUrl>#196</styleUrl>
            <LineString id="194">
                <coordinates>13.06980276,52.39886252,0.0 13.06983548,52.39886734,0.0</coordinates>
            </LineString>
        </Placemark>
        <Placemark id="199">
            <styleUrl>#200</styleUrl>
            <LineString id="198">
                <coordinates>13.06983548,52.39886734,0.0 13.06984927,52.39886937,0.0</coordinates>
            </LineString>
        </Placemark>
        <Placemark id="203">
            <styleUrl>#204</styleUrl>
            <LineString id="202">
                <coordinates>13.06984927,52.39886937,0.0 13.06985624,52.3988704,0.0</coordinates>
            </LineString>
        </Placemark>
    </Document>
</kml>
