<?xml version="1.0" encoding="UTF-8"?>
<kml xmlns="http://www.opengis.net/kml/2.2" xmlns:gx="http://www.google.com/kml/ext/2.2">
    <Document id="1">
        <Style id="4">
            <LineStyle id="5">
                <color>ff1bb300</color>
                <colorMode>normal</colorMode>
                <width>20</width>
            </LineStyle>
        </Style>
        <Style id="8">
            <LineStyle id="9">
                <color>ff1bb300</color>
                <colorMode>normal</colorMode>
                <width>20</width>
            </LineStyle>
        </Style>
        <Style id="12">
            <LineStyle id="13">
                <color>ff1bb300</color>
                <colorMode>normal</colorMode>
                <width>20</width>
            </LineStyle>
        </Style>
        <Style id="16">
            <LineStyle id="17">
                <color>ff1bb300</color>
                <colorMode>normal</colorMode>
                <width>20</width>
            </LineStyle>
        </Style>
        <Style id="20">
            <LineStyle id="21">
                <color>ff1bb300</color>
                <colorMode>normal</colorMode>
                <width>20</width>
            </LineStyle>
        </Style>
        <Style id="24">
            <LineStyle id="25">
                <color>ff1ab300</color>
                <colorMode>normal</colorMode>
                <width>20</width>
            </LineStyle>
        </Style>
        <Style id="28">
            <LineStyle id="29">
                <color>ff16b300</color>
                <colorMode>normal</colorMode>
                <width>20</width>
            </LineStyle>
        </Style>
        <Style id="32">
            <LineStyle id="33">
                <color>ff14b300</color>
                <colorMode>normal</colorMode>
                <width>20</width>
            </LineStyle>
        </Style>
        <Style id="36">
            <LineStyle id="37">
                <color>ff12b300</color>
                <colorMode>normal</colorMode>
                <width>20</width>
            </LineStyle>
        </Style>
        <Style id="40">
            <LineStyle id="41">
                <color>ff18b300</color>
                <colorMode>normal</colorMode>
                <width>20</width>
            </LineStyle>
        </Style>
        <Style id="44">
            <LineStyle id="45">
                <color>ff14b300</color>
                <colorMode>normal</colorMode>
                <width>20</width>
            </LineStyle>
        </Style>
        <Style id="48">
            <LineStyle id="49">
                <color>ff02b300</color>
                <colorMode>normal</colorMode>
                <width>20</width>
            </LineStyle>
        </Style>
        <Style id="52">
            <LineStyle id="53">
                <color>ff14b300</color>
                <colorMode>normal</colorMode>
                <width>20</width>
            </LineStyle>
        </Style>
        <Style id="56">
            <LineStyle id="57">
                <color>ff03b300</color>
                <colorMode>normal</colorMode>
                <width>20</width>
            </LineStyle>
        </Style>
        <Style id="60">
            <LineStyle id="61">
                <color>ff10b300</color>
                <colorMode>normal</colorMode>
                <width>20</width>
            </LineStyle>
        </Style>
        <Style id="64">
            <LineStyle id="65">
                <color>ff15b300</color>
                <colorMode>normal</colorMode>
                <width>20</width>
            </LineStyle>
        </Style>
        <Style id="68">
            <LineStyle id="69">
                <color>ff12b300</color>
                <colorMode>normal</colorMode>
                <width>20</width>
            </LineStyle>
        </Style>
        <Style id="72">
            <LineStyle id="73">
                <color>ff14b300</color>
                <colorMode>normal</colorMode>
                <width>20</width>
            </LineStyle>
        </Style>
        <Style id="76">
            <LineStyle id="77">
                <color>ff18b300</color>
                <colorMode>normal</colorMode>
                <width>20</width>
            </LineStyle>
        </Style>
        <Style id="80">
            <LineStyle id="81">
                <color>ff12b300</color>
                <colorMode>normal</colorMode>
                <width>20</width>
            </LineStyle>
        </Style>
        <Style id="84">
            <LineStyle id="85">
                <color>ff17b300</color>
                <colorMode>normal</colorMode>
                <width>20</width>
            </LineStyle>
        </Style>
        <Style id="88">
            <LineStyle id="89">
                <color>ff19b300</color>
                <colorMode>normal</colorMode>
                <width>20</width>
            </LineStyle>
        </Style>
        <Style id="92">
            <LineStyle id="93">
                <color>ff18b300</color>
                <colorMode>normal</colorMode>
                <width>20</width>
            </LineStyle>
        </Style>
        <Style id="96">
            <LineStyle id="97">
                <color>ff16b300</color>
                <colorMode>normal</colorMode>
                <width>20</width>
            </LineStyle>
        </Style>
        <Style id="100">
            <LineStyle id="101">
                <color>ff17b300</color>
                <colorMode>normal</colorMode>
                <width>20</width>
            </LineStyle>
        </Style>
        <Style id="104">
            <LineStyle id="105">
                <color>ff10b300</color>
                <colorMode>normal</colorMode>
                <width>20</width>
            </LineStyle>
        </Style>
        <Style id="108">
            <LineStyle id="109">
                <color>ff18b300</color>
                <colorMode>normal</colorMode>
                <width>20</width>
            </LineStyle>
        </Style>
        <Style id="112">
            <LineStyle id="113">
                <color>ff17b300</color>
                <colorMode>normal</colorMode>
                <width>20</width>
            </LineStyle>
        </Style>
        <Style id="116">
            <LineStyle id="117">
                <color>ff11b300</color>
                <colorMode>normal</colorMode>
                <width>20</width>
            </LineStyle>
        </Style>
        <Style id="120">
            <LineStyle id="121">
                <color>ff00b31f</color>
                <colorMode>normal</colorMode>
                <width>20</width>
            </LineStyle>
        </Style>
        <Style id="124">
            <LineStyle id="125">
                <color>ff12b300</color>
                <colorMode>normal</colorMode>
                <width>20</width>
            </LineStyle>
        </Style>
        <Style id="128">
            <LineStyle id="129">
                <color>ff15b300</color>
                <colorMode>normal</colorMode>
                <width>20</width>
            </LineStyle>
        </Style>
        <Style id="132">
            <LineStyle id="133">
                <color>ff10b300</color>
                <colorMode>normal</colorMode>
                <width>20</width>
            </LineStyle>
        </Style>
        <Style id="136">
            <LineStyle id="137">
                <color>ff0ab300</color>
                <colorMode>normal</colorMode>
                <width>20</width>
            </LineStyle>
        </Style>
        <Style id="140">
            <LineStyle id="141">
                <color>ff16b300</color>
                <colorMode>normal</colorMode>
                <width>20</width>
            </LineStyle>
        </Style>
        <Style id="144">
            <LineStyle id="145">
                <color>ff0fb300</color>
                <colorMode>normal</colorMode>
                <width>20</width>
            </LineStyle>
        </Style>
        <Style id="148">
            <LineStyle id="149">
                <color>ff07b300</color>
                <colorMode>normal</colorMode>
                <width>20</width>
            </LineStyle>
        </Style>
        <Style id="152">
            <LineStyle id="153">
                <color>ff12b300</color>
                <colorMode>normal</colorMode>
                <width>20</width>
            </LineStyle>
        </Style>
        <Style id="156">
            <LineStyle id="157">
                <color>ff16b300</color>
                <colorMode>normal</colorMode>
                <width>20</width>
            </LineStyle>
        </Style>
        <Style id="160">
            <LineStyle id="161">
                <color>ff17b300</color>
                <colorMode>normal</colorMode>
                <width>20</width>
            </LineStyle>
        </Style>
        <Style id="164">
            <LineStyle id="165">
                <color>ff17b300</color>
                <colorMode>normal</colorMode>
                <width>20</width>
            </LineStyle>
        </Style>
        <Style id="168">
            <LineStyle id="169">
                <color>ff17b300</color>
                <colorMode>normal</colorMode>
                <width>20</width>
            </LineStyle>
        </Style>
        <Style id="172">
            <LineStyle id="173">
                <color>ff16b300</color>
                <colorMode>normal</colorMode>
                <width>20</width>
            </LineStyle>
        </Style>
        <Style id="176">
            <LineStyle id="177">
                <color>ff00b304</color>
                <colorMode>normal</colorMode>
                <width>20</width>
            </LineStyle>
        </Style>
        <Style id="180">
            <LineStyle id="181">
                <color>ff11b300</color>
                <colorMode>normal</colorMode>
                <width>20</width>
            </LineStyle>
        </Style>
        <Style id="184">
            <LineStyle id="185">
                <color>ff00b324</color>
                <colorMode>normal</colorMode>
                <width>20</width>
            </LineStyle>
        </Style>
        <Style id="188">
            <LineStyle id="189">
                <color>ff17b300</color>
                <colorMode>normal</colorMode>
                <width>20</width>
            </LineStyle>
        </Style>
        <Style id="192">
            <LineStyle id="193">
                <color>ff16b300</color>
                <colorMode>normal</colorMode>
                <width>20</width>
            </LineStyle>
        </Style>
        <Style id="196">
            <LineStyle id="197">
                <color>ff15b300</color>
                <colorMode>normal</colorMode>
                <width>20</width>
            </LineStyle>
        </Style>
        <Style id="200">
            <LineStyle id="201">
                <color>ff16b300</color>
                <colorMode>normal</colorMode>
                <width>20</width>
            </LineStyle>
        </Style>
        <Style id="204">
            <LineStyle id="205">
                <color>ff17b300</color>
                <colorMode>normal</colorMode>
                <width>20</width>
            </LineStyle>
        </Style>
        <Style id="208">
            <LineStyle id="209">
                <color>ff17b300</color>
                <colorMode>normal</colorMode>
                <width>20</width>
            </LineStyle>
        </Style>
        <Style id="212">
            <LineStyle id="213">
                <color>ff17b300</color>
                <colorMode>normal</colorMode>
                <width>20</width>
            </LineStyle>
        </Style>
        <Style id="216">
            <LineStyle id="217">
                <color>ff17b300</color>
                <colorMode>normal</colorMode>
                <width>20</width>
            </LineStyle>
        </Style>
        <Style id="220">
            <LineStyle id="221">
                <color>ff16b300</color>
                <colorMode>normal</colorMode>
                <width>20</width>
            </LineStyle>
        </Style>
        <Style id="224">
            <LineStyle id="225">
                <color>ff15b300</color>
                <colorMode>normal</colorMode>
                <width>20</width>
            </LineStyle>
        </Style>
        <Style id="228">
            <LineStyle id="229">
                <color>ff17b300</color>
                <colorMode>normal</colorMode>
                <width>20</width>
            </LineStyle>
        </Style>
        <Style id="232">
            <LineStyle id="233">
                <color>ff17b300</color>
                <colorMode>normal</colorMode>
                <width>20</width>
            </LineStyle>
        </Style>
        <Style id="236">
            <LineStyle id="237">
                <color>ff15b300</color>
                <colorMode>normal</colorMode>
                <width>20</width>
            </LineStyle>
        </Style>
        <Style id="240">
            <LineStyle id="241">
                <color>ff15b300</color>
                <colorMode>normal</colorMode>
                <width>20</width>
            </LineStyle>
        </Style>
        <Style id="244">
            <LineStyle id="245">
                <color>ff17b300</color>
                <colorMode>normal</colorMode>
                <width>20</width>
            </LineStyle>
        </Style>
        <Style id="248">
            <LineStyle id="249">
                <color>ff18b300</color>
                <colorMode>normal</colorMode>
                <width>20</width>
            </LineStyle>
        </Style>
        <Style id="252">
            <LineStyle id="253">
                <color>ff17b300</color>
                <colorMode>normal</colorMode>
                <width>20</width>
            </LineStyle>
        </Style>
        <Style id="256">
            <LineStyle id="257">
                <color>ff13b300</color>
                <colorMode>normal</colorMode>
                <width>20</width>
            </LineStyle>
        </Style>
        <Style id="260">
            <LineStyle id="261">
                <color>ff15b300</color>
                <colorMode>normal</colorMode>
                <width>20</width>
            </LineStyle>
        </Style>
        <Style id="264">
            <LineStyle id="265">
                <color>ff17b300</color>
                <colorMode>normal</colorMode>
                <width>20</width>
            </LineStyle>
        </Style>
        <Style id="268">
            <LineStyle id="269">
                <color>ff16b300</color>
                <colorMode>normal</colorMode>
                <width>20</width>
            </LineStyle>
        </Style>
        <Style id="272">
            <LineStyle id="273">
                <color>ff15b300</color>
                <colorMode>normal</colorMode>
                <width>20</width>
            </LineStyle>
        </Style>
        <Style id="276">
            <LineStyle id="277">
                <color>ff16b300</color>
                <colorMode>normal</colorMode>
                <width>20</width>
            </LineStyle>
        </Style>
        <Style id="280">
            <LineStyle id="281">
                <color>ff16b300</color>
                <colorMode>normal</colorMode>
                <width>20</width>
            </LineStyle>
        </Style>
        <Style id="284">
            <LineStyle id="285">
                <color>ff14b300</color>
                <colorMode>normal</colorMode>
                <width>20</width>
            </LineStyle>
        </Style>
        <Style id="288">
            <LineStyle id="289">
                <color>ff17b300</color>
                <colorMode>normal</colorMode>
                <width>20</width>
            </LineStyle>
        </Style>
        <Style id="292">
            <LineStyle id="293">
                <color>ff01b300</color>
                <colorMode>normal</colorMode>
                <width>20</width>
            </LineStyle>
        </Style>
        <Style id="296">
            <LineStyle id="297">
                <color>ff0eb300</color>
                <colorMode>normal</colorMode>
                <width>20</width>
            </LineStyle>
        </Style>
        <Style id="300">
            <LineStyle id="301">
                <color>ff10b300</color>
                <colorMode>normal</colorMode>
                <width>20</width>
            </LineStyle>
        </Style>
        <Style id="304">
            <LineStyle id="305">
                <color>ff12b300</color>
                <colorMode>normal</colorMode>
                <width>20</width>
            </LineStyle>
        </Style>
        <Style id="308">
            <LineStyle id="309">
                <color>ff0fb300</color>
                <colorMode>normal</colorMode>
                <width>20</width>
            </LineStyle>
        </Style>
        <Style id="312">
            <LineStyle id="313">
                <color>ff0cb300</color>
                <colorMode>normal</colorMode>
                <width>20</width>
            </LineStyle>
        </Style>
        <Style id="316">
            <LineStyle id="317">
                <color>ff12b300</color>
                <colorMode>normal</colorMode>
                <width>20</width>
            </LineStyle>
        </Style>
        <Style id="320">
            <LineStyle id="321">
                <color>ff0fb300</color>
                <colorMode>normal</colorMode>
                <width>20</width>
            </LineStyle>
        </Style>
        <Style id="324">
            <LineStyle id="325">
                <color>ff10b300</color>
                <colorMode>normal</colorMode>
                <width>20</width>
            </LineStyle>
        </Style>
        <Style id="328">
            <LineStyle id="329">
                <color>ff10b300</color>
                <colorMode>normal</colorMode>
                <width>20</width>
            </LineStyle>
        </Style>
        <Style id="332">
            <LineStyle id="333">
                <color>ff12b300</color>
                <colorMode>normal</colorMode>
                <width>20</width>
            </LineStyle>
        </Style>
        <Style id="336">
            <LineStyle id="337">
                <color>ff0fb300</color>
                <colorMode>normal</colorMode>
                <width>20</width>
            </LineStyle>
        </Style>
        <Style id="340">
            <LineStyle id="341">
                <color>ff10b300</color>
                <colorMode>normal</colorMode>
                <width>20</width>
            </LineStyle>
        </Style>
        <Style id="344">
            <LineStyle id="345">
                <color>ff14b300</color>
                <colorMode>normal</colorMode>
                <width>20</width>
            </LineStyle>
        </Style>
        <Style id="348">
            <LineStyle id="349">
                <color>ff16b300</color>
                <colorMode>normal</colorMode>
                <width>20</width>
            </LineStyle>
        </Style>
        <Style id="352">
            <LineStyle id="353">
                <color>ff0cb300</color>
                <colorMode>normal</colorMode>
                <width>20</width>
            </LineStyle>
        </Style>
        <Style id="356">
            <LineStyle id="357">
                <color>ff00b312</color>
                <colorMode>normal</colorMode>
                <width>20</width>
            </LineStyle>
        </Style>
        <Placemark id="3">
            <styleUrl>#4</styleUrl>
            <LineString id="2">
                <coordinates>13.07041944,52.40242969,0.0 13.07046278,52.40243608,0.0</coordinates>
            </LineString>
        </Placemark>
        <Placemark id="7">
            <styleUrl>#8</styleUrl>
            <LineString id="6">
                <coordinates>13.07046278,52.40243608,0.0 13.06976725,52.40250427,0.0</coordinates>
            </LineString>
        </Placemark>
        <Placemark id="11">
            <styleUrl>#12</styleUrl>
            <LineString id="10">
                <coordinates>13.06976725,52.40250427,0.0 13.06976533,52.40250176,0.0</coordinates>
            </LineString>
        </Placemark>
        <Placemark id="15">
            <styleUrl>#16</styleUrl>
            <LineString id="14">
                <coordinates>13.06976533,52.40250176,0.0 13.06974965,52.40249153,0.0</coordinates>
            </LineString>
        </Placemark>
        <Placemark id="19">
            <styleUrl>#20</styleUrl>
            <LineString id="18">
                <coordinates>13.06974965,52.40249153,0.0 13.06973993,52.40247116,0.0</coordinates>
            </LineString>
        </Placemark>
        <Placemark id="23">
            <styleUrl>#24</styleUrl>
            <LineString id="22">
                <coordinates>13.06973993,52.40247116,0.0 13.06972459,52.40244686,0.0</coordinates>
            </LineString>
        </Placemark>
        <Placemark id="27">
            <styleUrl>#28</styleUrl>
            <LineString id="26">
                <coordinates>13.06972459,52.40244686,0.0 13.0697095,52.40241907,0.0</coordinates>
            </LineString>
        </Placemark>
        <Placemark id="31">
            <styleUrl>#32</styleUrl>
            <LineString id="30">
                <coordinates>13.0697095,52.40241907,0.0 13.06968913,52.40238735,0.0</coordinates>
            </LineString>
        </Placemark>
        <Placemark id="35">
            <styleUrl>#36</styleUrl>
            <LineString id="34">
                <coordinates>13.06968913,52.40238735,0.0 13.06974608,52.40232228,0.0</coordinates>
            </LineString>
        </Placemark>
        <Placemark id="39">
            <styleUrl>#40</styleUrl>
            <LineString id="38">
                <coordinates>13.06974608,52.40232228,0.0 13.06971183,52.40228963,0.0</coordinates>
            </LineString>
        </Placemark>
        <Placemark id="43">
            <styleUrl>#44</styleUrl>
            <LineString id="42">
                <coordinates>13.06971183,52.40228963,0.0 13.06967632,52.40225579,0.0</coordinates>
            </LineString>
        </Placemark>
        <Placemark id="47">
            <styleUrl>#48</styleUrl>
            <LineString id="46">
                <coordinates>13.06967632,52.40225579,0.0 13.06964324,52.40222426,0.0</coordinates>
            </LineString>
        </Placemark>
        <Placemark id="51">
            <styleUrl>#52</styleUrl>
            <LineString id="50">
                <coordinates>13.06964324,52.40222426,0.0 13.06960607,52.40218882,0.0</coordinates>
            </LineString>
        </Placemark>
        <Placemark id="55">
            <styleUrl>#56</styleUrl>
            <LineString id="54">
                <coordinates>13.06960607,52.40218882,0.0 13.06956752,52.40215208,0.0</coordinates>
            </LineString>
        </Placemark>
        <Placemark id="59">
            <styleUrl>#60</styleUrl>
            <LineString id="58">
                <coordinates>13.06956752,52.40215208,0.0 13.06952769,52.40211411,0.0</coordinates>
            </LineString>
        </Placemark>
        <Placemark id="63">
            <styleUrl>#64</styleUrl>
            <LineString id="62">
                <coordinates>13.06952769,52.40211411,0.0 13.06948862,52.40207687,0.0</coordinates>
            </LineString>
        </Placemark>
        <Placemark id="67">
            <styleUrl>#68</styleUrl>
            <LineString id="66">
                <coordinates>13.06948862,52.40207687,0.0 13.06945125,52.40204126,0.0</coordinates>
            </LineString>
        </Placemark>
        <Placemark id="71">
            <styleUrl>#72</styleUrl>
            <LineString id="70">
                <coordinates>13.06945125,52.40204126,0.0 13.06940858,52.40200059,0.0</coordinates>
            </LineString>
        </Placemark>
        <Placemark id="75">
            <styleUrl>#76</styleUrl>
            <LineString id="74">
                <coordinates>13.06940858,52.40200059,0.0 13.06936923,52.40196307,0.0</coordinates>
            </LineString>
        </Placemark>
        <Placemark id="79">
            <styleUrl>#80</styleUrl>
            <LineString id="78">
                <coordinates>13.06936923,52.40196307,0.0 13.06932635,52.4019222,0.0</coordinates>
            </LineString>
        </Placemark>
        <Placemark id="83">
            <styleUrl>#84</styleUrl>
            <LineString id="82">
                <coordinates>13.06932635,52.4019222,0.0 13.06928732,52.40188468,0.0</coordinates>
            </LineString>
        </Placemark>
        <Placemark id="87">
            <styleUrl>#88</styleUrl>
            <LineString id="86">
                <coordinates>13.06928732,52.40188468,0.0 13.0692502,52.40184859,0.0</coordinates>
            </LineString>
        </Placemark>
        <Placemark id="91">
            <styleUrl>#92</styleUrl>
            <LineString id="90">
                <coordinates>13.0692502,52.40184859,0.0 13.06921453,52.40181392,0.0</coordinates>
            </LineString>
        </Placemark>
        <Placemark id="95">
            <styleUrl>#96</styleUrl>
            <LineString id="94">
                <coordinates>13.06921453,52.40181392,0.0 13.0691721,52.40177266,0.0</coordinates>
            </LineString>
        </Placemark>
        <Placemark id="99">
            <styleUrl>#100</styleUrl>
            <LineString id="98">
                <coordinates>13.0691721,52.40177266,0.0 13.06913034,52.40173207,0.0</coordinates>
            </LineString>
        </Placemark>
        <Placemark id="103">
            <styleUrl>#104</styleUrl>
            <LineString id="102">
                <coordinates>13.06913034,52.40173207,0.0 13.06908612,52.40168908,0.0</coordinates>
            </LineString>
        </Placemark>
        <Placemark id="107">
            <styleUrl>#108</styleUrl>
            <LineString id="106">
                <coordinates>13.06908612,52.40168908,0.0 13.06904641,52.40164971,0.0</coordinates>
            </LineString>
        </Placemark>
        <Placemark id="111">
            <styleUrl>#112</styleUrl>
            <LineString id="110">
                <coordinates>13.06904641,52.40164971,0.0 13.06900759,52.40161085,0.0</coordinates>
            </LineString>
        </Placemark>
        <Placemark id="115">
            <styleUrl>#116</styleUrl>
            <LineString id="114">
                <coordinates>13.06900759,52.40161085,0.0 13.0689688,52.40157201,0.0</coordinates>
            </LineString>
        </Placemark>
        <Placemark id="119">
            <styleUrl>#120</styleUrl>
            <LineString id="118">
                <coordinates>13.0689688,52.40157201,0.0 13.06892405,52.40152721,0.0</coordinates>
            </LineString>
        </Placemark>
        <Placemark id="123">
            <styleUrl>#124</styleUrl>
            <LineString id="122">
                <coordinates>13.06892405,52.40152721,0.0 13.06887801,52.40148112,0.0</coordinates>
            </LineString>
        </Placemark>
        <Placemark id="127">
            <styleUrl>#128</styleUrl>
            <LineString id="126">
                <coordinates>13.06887801,52.40148112,0.0 13.06883484,52.4014379,0.0</coordinates>
            </LineString>
        </Placemark>
        <Placemark id="131">
            <styleUrl>#132</styleUrl>
            <LineString id="130">
                <coordinates>13.06883484,52.4014379,0.0 13.0687862,52.4013892,0.0</coordinates>
            </LineString>
        </Placemark>
        <Placemark id="135">
            <styleUrl>#136</styleUrl>
            <LineString id="134">
                <coordinates>13.0687862,52.4013892,0.0 13.06873872,52.40134156,0.0</coordinates>
            </LineString>
        </Placemark>
        <Placemark id="139">
            <styleUrl>#140</styleUrl>
            <LineString id="138">
                <coordinates>13.06873872,52.40134156,0.0 13.06867682,52.4012795,0.0</coordinates>
            </LineString>
        </Placemark>
        <Placemark id="143">
            <styleUrl>#144</styleUrl>
            <LineString id="142">
                <coordinates>13.06867682,52.4012795,0.0 13.06863482,52.40123682,0.0</coordinates>
            </LineString>
        </Placemark>
        <Placemark id="147">
            <styleUrl>#148</styleUrl>
            <LineString id="146">
                <coordinates>13.06863482,52.40123682,0.0 13.06858932,52.40119001,0.0</coordinates>
            </LineString>
        </Placemark>
        <Placemark id="151">
            <styleUrl>#152</styleUrl>
            <LineString id="150">
                <coordinates>13.06858932,52.40119001,0.0 13.06855148,52.40115108,0.0</coordinates>
            </LineString>
        </Placemark>
        <Placemark id="155">
            <styleUrl>#156</styleUrl>
            <LineString id="154">
                <coordinates>13.06855148,52.40115108,0.0 13.06852295,52.40111723,0.0</coordinates>
            </LineString>
        </Placemark>
        <Placemark id="159">
            <styleUrl>#160</styleUrl>
            <LineString id="158">
                <coordinates>13.06852295,52.40111723,0.0 13.06848475,52.40107363,0.0</coordinates>
            </LineString>
        </Placemark>
        <Placemark id="163">
            <styleUrl>#164</styleUrl>
            <LineString id="162">
                <coordinates>13.06848475,52.40107363,0.0 13.06842868,52.40103117,0.0</coordinates>
            </LineString>
        </Placemark>
        <Placemark id="167">
            <styleUrl>#168</styleUrl>
            <LineString id="166">
                <coordinates>13.06842868,52.40103117,0.0 13.06838841,52.40098175,0.0</coordinates>
            </LineString>
        </Placemark>
        <Placemark id="171">
            <styleUrl>#172</styleUrl>
            <LineString id="170">
                <coordinates>13.06838841,52.40098175,0.0 13.06835099,52.40093446,0.0</coordinates>
            </LineString>
        </Placemark>
        <Placemark id="175">
            <styleUrl>#176</styleUrl>
            <LineString id="174">
                <coordinates>13.06835099,52.40093446,0.0 13.06830915,52.4008911,0.0</coordinates>
            </LineString>
        </Placemark>
        <Placemark id="179">
            <styleUrl>#180</styleUrl>
            <LineString id="178">
                <coordinates>13.06830915,52.4008911,0.0 13.06827175,52.40084931,0.0</coordinates>
            </LineString>
        </Placemark>
        <Placemark id="183">
            <styleUrl>#184</styleUrl>
            <LineString id="182">
                <coordinates>13.06827175,52.40084931,0.0 13.06822925,52.40080854,0.0</coordinates>
            </LineString>
        </Placemark>
        <Placemark id="187">
            <styleUrl>#188</styleUrl>
            <LineString id="186">
                <coordinates>13.06822925,52.40080854,0.0 13.0681833,52.4007679,0.0</coordinates>
            </LineString>
        </Placemark>
        <Placemark id="191">
            <styleUrl>#192</styleUrl>
            <LineString id="190">
                <coordinates>13.0681833,52.4007679,0.0 13.06813018,52.40073242,0.0</coordinates>
            </LineString>
        </Placemark>
        <Placemark id="195">
            <styleUrl>#196</styleUrl>
            <LineString id="194">
                <coordinates>13.06813018,52.40073242,0.0 13.06810764,52.40068028,0.0</coordinates>
            </LineString>
        </Placemark>
        <Placemark id="199">
            <styleUrl>#200</styleUrl>
            <LineString id="198">
                <coordinates>13.06810764,52.40068028,0.0 13.06806836,52.40064273,0.0</coordinates>
            </LineString>
        </Placemark>
        <Placemark id="203">
            <styleUrl>#204</styleUrl>
            <LineString id="202">
                <coordinates>13.06806836,52.40064273,0.0 13.06802434,52.40060065,0.0</coordinates>
            </LineString>
        </Placemark>
        <Placemark id="207">
            <styleUrl>#208</styleUrl>
            <LineString id="206">
                <coordinates>13.06802434,52.40060065,0.0 13.06797945,52.40055799,0.0</coordinates>
            </LineString>
        </Placemark>
        <Placemark id="211">
            <styleUrl>#212</styleUrl>
            <LineString id="210">
                <coordinates>13.06797945,52.40055799,0.0 13.06793381,52.40051572,0.0</coordinates>
            </LineString>
        </Placemark>
        <Placemark id="215">
            <styleUrl>#216</styleUrl>
            <LineString id="214">
                <coordinates>13.06793381,52.40051572,0.0 13.06788801,52.40047329,0.0</coordinates>
            </LineString>
        </Placemark>
        <Placemark id="219">
            <styleUrl>#220</styleUrl>
            <LineString id="218">
                <coordinates>13.06788801,52.40047329,0.0 13.06784334,52.40043192,0.0</coordinates>
            </LineString>
        </Placemark>
        <Placemark id="223">
            <styleUrl>#224</styleUrl>
            <LineString id="222">
                <coordinates>13.06784334,52.40043192,0.0 13.06779988,52.40039167,0.0</coordinates>
            </LineString>
        </Placemark>
        <Placemark id="227">
            <styleUrl>#228</styleUrl>
            <LineString id="226">
                <coordinates>13.06779988,52.40039167,0.0 13.06773348,52.40034628,0.0</coordinates>
            </LineString>
        </Placemark>
        <Placemark id="231">
            <styleUrl>#232</styleUrl>
            <LineString id="230">
                <coordinates>13.06773348,52.40034628,0.0 13.06768388,52.40030729,0.0</coordinates>
            </LineString>
        </Placemark>
        <Placemark id="235">
            <styleUrl>#236</styleUrl>
            <LineString id="234">
                <coordinates>13.06768388,52.40030729,0.0 13.06763852,52.40026745,0.0</coordinates>
            </LineString>
        </Placemark>
        <Placemark id="239">
            <styleUrl>#240</styleUrl>
            <LineString id="238">
                <coordinates>13.06763852,52.40026745,0.0 13.06761846,52.40021914,0.0</coordinates>
            </LineString>
        </Placemark>
        <Placemark id="243">
            <styleUrl>#244</styleUrl>
            <LineString id="242">
                <coordinates>13.06761846,52.40021914,0.0 13.06757107,52.40017342,0.0</coordinates>
            </LineString>
        </Placemark>
        <Placemark id="247">
            <styleUrl>#248</styleUrl>
            <LineString id="246">
                <coordinates>13.06757107,52.40017342,0.0 13.06751398,52.40013549,0.0</coordinates>
            </LineString>
        </Placemark>
        <Placemark id="251">
            <styleUrl>#252</styleUrl>
            <LineString id="250">
                <coordinates>13.06751398,52.40013549,0.0 13.06746813,52.40009542,0.0</coordinates>
            </LineString>
        </Placemark>
        <Placemark id="255">
            <styleUrl>#256</styleUrl>
            <LineString id="254">
                <coordinates>13.06746813,52.40009542,0.0 13.06741476,52.40005299,0.0</coordinates>
            </LineString>
        </Placemark>
        <Placemark id="259">
            <styleUrl>#260</styleUrl>
            <LineString id="258">
                <coordinates>13.06741476,52.40005299,0.0 13.06737023,52.40001115,0.0</coordinates>
            </LineString>
        </Placemark>
        <Placemark id="263">
            <styleUrl>#264</styleUrl>
            <LineString id="262">
                <coordinates>13.06737023,52.40001115,0.0 13.0673507,52.39996265,0.0</coordinates>
            </LineString>
        </Placemark>
        <Placemark id="267">
            <styleUrl>#268</styleUrl>
            <LineString id="266">
                <coordinates>13.0673507,52.39996265,0.0 13.06728431,52.39993064,0.0</coordinates>
            </LineString>
        </Placemark>
        <Placemark id="271">
            <styleUrl>#272</styleUrl>
            <LineString id="270">
                <coordinates>13.06728431,52.39993064,0.0 13.06726206,52.3998795,0.0</coordinates>
            </LineString>
        </Placemark>
        <Placemark id="275">
            <styleUrl>#276</styleUrl>
            <LineString id="274">
                <coordinates>13.06726206,52.3998795,0.0 13.06721961,52.39983943,0.0</coordinates>
            </LineString>
        </Placemark>
        <Placemark id="279">
            <styleUrl>#280</styleUrl>
            <LineString id="278">
                <coordinates>13.06721961,52.39983943,0.0 13.06717926,52.39980103,0.0</coordinates>
            </LineString>
        </Placemark>
        <Placemark id="283">
            <styleUrl>#284</styleUrl>
            <LineString id="282">
                <coordinates>13.06717926,52.39980103,0.0 13.0671393,52.39976302,0.0</coordinates>
            </LineString>
        </Placemark>
        <Placemark id="287">
            <styleUrl>#288</styleUrl>
            <LineString id="286">
                <coordinates>13.0671393,52.39976302,0.0 13.06709997,52.3997256,0.0</coordinates>
            </LineString>
        </Placemark>
        <Placemark id="291">
            <styleUrl>#292</styleUrl>
            <LineString id="290">
                <coordinates>13.06709997,52.3997256,0.0 13.06705916,52.39968677,0.0</coordinates>
            </LineString>
        </Placemark>
        <Placemark id="295">
            <styleUrl>#296</styleUrl>
            <LineString id="294">
                <coordinates>13.06705916,52.39968677,0.0 13.06702004,52.39964954,0.0</coordinates>
            </LineString>
        </Placemark>
        <Placemark id="299">
            <styleUrl>#300</styleUrl>
            <LineString id="298">
                <coordinates>13.06702004,52.39964954,0.0 13.06697986,52.39961131,0.0</coordinates>
            </LineString>
        </Placemark>
        <Placemark id="303">
            <styleUrl>#304</styleUrl>
            <LineString id="302">
                <coordinates>13.06697986,52.39961131,0.0 13.06694025,52.39957189,0.0</coordinates>
            </LineString>
        </Placemark>
        <Placemark id="307">
            <styleUrl>#308</styleUrl>
            <LineString id="306">
                <coordinates>13.06694025,52.39957189,0.0 13.06689902,52.39953269,0.0</coordinates>
            </LineString>
        </Placemark>
        <Placemark id="311">
            <styleUrl>#312</styleUrl>
            <LineString id="310">
                <coordinates>13.06689902,52.39953269,0.0 13.06685374,52.3994894,0.0</coordinates>
            </LineString>
        </Placemark>
        <Placemark id="315">
            <styleUrl>#316</styleUrl>
            <LineString id="314">
                <coordinates>13.06685374,52.3994894,0.0 13.06681274,52.3994502,0.0</coordinates>
            </LineString>
        </Placemark>
        <Placemark id="319">
            <styleUrl>#320</styleUrl>
            <LineString id="318">
                <coordinates>13.06681274,52.3994502,0.0 13.06677272,52.39941193,0.0</coordinates>
            </LineString>
        </Placemark>
        <Placemark id="323">
            <styleUrl>#324</styleUrl>
            <LineString id="322">
                <coordinates>13.06677272,52.39941193,0.0 13.06672859,52.39936975,0.0</coordinates>
            </LineString>
        </Placemark>
        <Placemark id="327">
            <styleUrl>#328</styleUrl>
            <LineString id="326">
                <coordinates>13.06672859,52.39936975,0.0 13.06668485,52.39932793,0.0</coordinates>
            </LineString>
        </Placemark>
        <Placemark id="331">
            <styleUrl>#332</styleUrl>
            <LineString id="330">
                <coordinates>13.06668485,52.39932793,0.0 13.06664662,52.39929123,0.0</coordinates>
            </LineString>
        </Placemark>
        <Placemark id="335">
            <styleUrl>#336</styleUrl>
            <LineString id="334">
                <coordinates>13.06664662,52.39929123,0.0 13.06660556,52.39925082,0.0</coordinates>
            </LineString>
        </Placemark>
        <Placemark id="339">
            <styleUrl>#340</styleUrl>
            <LineString id="338">
                <coordinates>13.06660556,52.39925082,0.0 13.06656458,52.39921049,0.0</coordinates>
            </LineString>
        </Placemark>
        <Placemark id="343">
            <styleUrl>#344</styleUrl>
            <LineString id="342">
                <coordinates>13.06656458,52.39921049,0.0 13.06652338,52.39916994,0.0</coordinates>
            </LineString>
        </Placemark>
        <Placemark id="347">
            <styleUrl>#348</styleUrl>
            <LineString id="346">
                <coordinates>13.06652338,52.39916994,0.0 13.06646955,52.39914101,0.0</coordinates>
            </LineString>
        </Placemark>
        <Placemark id="351">
            <styleUrl>#352</styleUrl>
            <LineString id="350">
                <coordinates>13.06646955,52.39914101,0.0 13.06642964,52.39910006,0.0</coordinates>
            </LineString>
        </Placemark>
        <Placemark id="355">
            <styleUrl>#356</styleUrl>
            <LineString id="354">
                <coordinates>13.06642964,52.39910006,0.0 13.06639251,52.39906278,0.0</coordinates>
            </LineString>
        </Placemark>
    </Document>
</kml>
